[
    {
        "Altitude(m)": 565044.5040892257,
        "Argument of Periapsis(deg)": 0.026491964442854003,
        "Eccentricity": 0.0,
        "Inclination(deg)": 53.0,
        "Latitude(deg)": -36.38879069601154,
        "Longitude(deg)": -104.65894893509657,
        "Mean Anomaly(deg)": -132.36082852968963,
        "RAAN(deg)": 144.96057347411207,
        "Satellite Name": "Starlink Shell 1 649",
        "Satellite Number": 649,
        "Semi-Major Axis(m)": 6931778.249405717,
        "Time(s)": 760
    },
    {
        "Altitude(m)": 565214.510539335,
        "Argument of Periapsis(deg)": 0.02684054292236524,
        "Eccentricity": 0.0,
        "Inclination(deg)": 53.0,
        "Latitude(deg)": -36.805044344592325,
        "Longitude(deg)": -104.11871159874534,
        "Mean Anomaly(deg)": -131.73399732613294,
        "RAAN(deg)": 144.9600547040346,
        "Satellite Name": "Starlink Shell 1 649",
        "Satellite Number": 649,
        "Semi-Major Axis(m)": 6931778.249405717,
        "Time(s)": 770
    },
    {
        "Altitude(m)": 565383.6456373171,
        "Argument of Periapsis(deg)": 0.027189121401876473,
        "Eccentricity": 0.0,
        "Inclination(deg)": 53.0,
        "Latitude(deg)": -37.218384267372166,
        "Longitude(deg)": -103.57218854318688,
        "Mean Anomaly(deg)": -131.10716612257622,
        "RAAN(deg)": 144.95953593395714,
        "Satellite Name": "Starlink Shell 1 649",
        "Satellite Number": 649,
        "Semi-Major Axis(m)": 6931778.249405717,
        "Time(s)": 780
    },
    {
        "Altitude(m)": 565551.8441162293,
        "Argument of Periapsis(deg)": 0.02753769988138771,
        "Eccentricity": 0.0,
        "Inclination(deg)": 53.0,
        "Latitude(deg)": -37.628736227767625,
        "Longitude(deg)": -103.01926041857101,
        "Mean Anomaly(deg)": -130.48033491901955,
        "RAAN(deg)": 144.95901716387965,
        "Satellite Name": "Starlink Shell 1 649",
        "Satellite Number": 649,
        "Semi-Major Axis(m)": 6931778.249405717,
        "Time(s)": 790
    },
    {
        "Altitude(m)": 565719.0409812549,
        "Argument of Periapsis(deg)": 0.02788627836089895,
        "Eccentricity": 0.0,
        "Inclination(deg)": 53.0,
        "Latitude(deg)": -38.03602432080035,
        "Longitude(deg)": -102.45980821259994,
        "Mean Anomaly(deg)": -129.85350371546278,
        "RAAN(deg)": 144.9584983938022,
        "Satellite Name": "Starlink Shell 1 649",
        "Satellite Number": 649,
        "Semi-Major Axis(m)": 6931778.249405717,
        "Time(s)": 800
    },
    {
        "Altitude(m)": 565885.1715386264,
        "Argument of Periapsis(deg)": 0.02823485684041019,
        "Eccentricity": 0.0,
        "Inclination(deg)": 53.0,
        "Latitude(deg)": -38.440170947140956,
        "Longitude(deg)": -101.89371289180212,
        "Mean Anomaly(deg)": -129.22667251190606,
        "RAAN(deg)": 144.95797962372473,
        "Satellite Name": "Starlink Shell 1 649",
        "Satellite Number": 649,
        "Semi-Major Axis(m)": 6931778.249405717,
        "Time(s)": 810
    },
    {
        "Altitude(m)": 566050.1714244202,
        "Argument of Periapsis(deg)": 0.028583435319921423,
        "Eccentricity": 0.0,
        "Inclination(deg)": 53.0,
        "Latitude(deg)": -38.84109678864984,
        "Longitude(deg)": -101.32085505519994,
        "Mean Anomaly(deg)": -128.59984130834937,
        "RAAN(deg)": 144.95746085364723,
        "Satellite Name": "Starlink Shell 1 649",
        "Satellite Number": 649,
        "Semi-Major Axis(m)": 6931778.249405717,
        "Time(s)": 820
    },
    {
        "Altitude(m)": 566213.9766331777,
        "Argument of Periapsis(deg)": 0.028932013799432665,
        "Eccentricity": 0.0,
        "Inclination(deg)": 53.0,
        "Latitude(deg)": -39.238720785620025,
        "Longitude(deg)": -100.74111611384697,
        "Mean Anomaly(deg)": -127.97301010479264,
        "RAAN(deg)": 144.95694208356977,
        "Satellite Name": "Starlink Shell 1 649",
        "Satellite Number": 649,
        "Semi-Major Axis(m)": 6931778.249405717,
        "Time(s)": 830
    },
    {
        "Altitude(m)": 566376.5235463157,
        "Argument of Periapsis(deg)": 0.029280592278943897,
        "Eccentricity": 0.0,
        "Inclination(deg)": 53.0,
        "Latitude(deg)": -39.632960115943945,
        "Longitude(deg)": -100.15437797108446,
        "Mean Anomaly(deg)": -127.34617890123599,
        "RAAN(deg)": 144.9564233134923,
        "Satellite Name": "Starlink Shell 1 649",
        "Satellite Number": 649,
        "Semi-Major Axis(m)": 6931778.249405717,
        "Time(s)": 840
    },
    {
        "Altitude(m)": 566537.7489604098,
        "Argument of Periapsis(deg)": 0.029629170758455132,
        "Eccentricity": 0.0,
        "Inclination(deg)": 53.0,
        "Latitude(deg)": -40.02373017644061,
        "Longitude(deg)": -99.56052271698195,
        "Mean Anomaly(deg)": -126.7193476976792,
        "RAAN(deg)": 144.95590454341482,
        "Satellite Name": "Starlink Shell 1 649",
        "Satellite Number": 649,
        "Semi-Major Axis(m)": 6931778.249405717,
        "Time(s)": 850
    },
    {
        "Altitude(m)": 566697.5901152303,
        "Argument of Periapsis(deg)": 0.02997774923796637,
        "Eccentricity": 0.0,
        "Inclination(deg)": 53.0,
        "Latitude(deg)": -40.4109445665902,
        "Longitude(deg)": -98.95943401852077,
        "Mean Anomaly(deg)": -126.09251649412249,
        "RAAN(deg)": 144.95538577333735,
        "Satellite Name": "Starlink Shell 1 649",
        "Satellite Number": 649,
        "Semi-Major Axis(m)": 6931778.249405717,
        "Time(s)": 860
    },
    {
        "Altitude(m)": 566855.9847215795,
        "Argument of Periapsis(deg)": 0.030326327717477602,
        "Eccentricity": 0.0,
        "Inclination(deg)": 53.0,
        "Latitude(deg)": -40.794515074947846,
        "Longitude(deg)": -98.3509960036489,
        "Mean Anomaly(deg)": -125.4656852905658,
        "RAAN(deg)": 144.9548670032599,
        "Satellite Name": "Starlink Shell 1 649",
        "Satellite Number": 649,
        "Semi-Major Axis(m)": 6931778.249405717,
        "Time(s)": 870
    },
    {
        "Altitude(m)": 567012.8709888924,
        "Argument of Periapsis(deg)": 0.030674906196988847,
        "Eccentricity": 0.0,
        "Inclination(deg)": 53.0,
        "Latitude(deg)": -41.17435166851283,
        "Longitude(deg)": -97.7350946826708,
        "Mean Anomaly(deg)": -124.83885408700903,
        "RAAN(deg)": 144.9543482331824,
        "Satellite Name": "Starlink Shell 1 649",
        "Satellite Number": 649,
        "Semi-Major Axis(m)": 6931778.249405717,
        "Time(s)": 880
    },
    {
        "Altitude(m)": 567168.1876526283,
        "Argument of Periapsis(deg)": 0.031023484676500086,
        "Eccentricity": 0.0,
        "Inclination(deg)": 53.0,
        "Latitude(deg)": -41.55036248535406,
        "Longitude(deg)": -97.11161770504732,
        "Mean Anomaly(deg)": -124.21202288345238,
        "RAAN(deg)": 144.95382946310494,
        "Satellite Name": "Starlink Shell 1 649",
        "Satellite Number": 649,
        "Semi-Major Axis(m)": 6931778.249405717,
        "Time(s)": 890
    },
    {
        "Altitude(m)": 567321.8740013717,
        "Argument of Periapsis(deg)": 0.03137206315601132,
        "Eccentricity": 0.0,
        "Inclination(deg)": 53.0,
        "Latitude(deg)": -41.922453830804706,
        "Longitude(deg)": -96.4804541330483,
        "Mean Anomaly(deg)": -123.58519167989562,
        "RAAN(deg)": 144.95331069302748,
        "Satellite Name": "Starlink Shell 1 649",
        "Satellite Number": 649,
        "Semi-Major Axis(m)": 6931778.249405717,
        "Time(s)": 900
    },
    {
        "Altitude(m)": 567473.8699036919,
        "Argument of Periapsis(deg)": 0.03172064163552255,
        "Eccentricity": 0.0,
        "Inclination(deg)": 53.0,
        "Latitude(deg)": -42.29053017755132,
        "Longitude(deg)": -95.8414957455593,
        "Mean Anomaly(deg)": -122.95836047633895,
        "RAAN(deg)": 144.95279192294998,
        "Satellite Name": "Starlink Shell 1 649",
        "Satellite Number": 649,
        "Semi-Major Axis(m)": 6931778.249405717,
        "Time(s)": 910
    },
    {
        "Altitude(m)": 567624.1158347441,
        "Argument of Periapsis(deg)": 0.0320692201150338,
        "Eccentricity": 0.0,
        "Inclination(deg)": 53.0,
        "Latitude(deg)": -42.65449416996448,
        "Longitude(deg)": -95.19463684664875,
        "Mean Anomaly(deg)": -122.33152927278219,
        "RAAN(deg)": 144.95227315287252,
        "Satellite Name": "Starlink Shell 1 649",
        "Satellite Number": 649,
        "Semi-Major Axis(m)": 6931778.249405717,
        "Time(s)": 920
    },
    {
        "Altitude(m)": 567772.552902548,
        "Argument of Periapsis(deg)": 0.032417798594545036,
        "Eccentricity": 0.0,
        "Inclination(deg)": 53.0,
        "Latitude(deg)": -43.01424663302517,
        "Longitude(deg)": -94.53977409207111,
        "Mean Anomaly(deg)": -121.70469806922554,
        "RAAN(deg)": 144.95175438279506,
        "Satellite Name": "Starlink Shell 1 649",
        "Satellite Number": 649,
        "Semi-Major Axis(m)": 6931778.249405717,
        "Time(s)": 930
    },
    {
        "Altitude(m)": 567919.1228740099,
        "Argument of Periapsis(deg)": 0.03276637707405627,
        "Eccentricity": 0.0,
        "Inclination(deg)": 53.0,
        "Latitude(deg)": -43.36968658621886,
        "Longitude(deg)": -93.87680784679037,
        "Mean Anomaly(deg)": -121.07786686566878,
        "RAAN(deg)": 144.95123561271757,
        "Satellite Name": "Starlink Shell 1 649",
        "Satellite Number": 649,
        "Semi-Major Axis(m)": 6931778.249405717,
        "Time(s)": 940
    }
]